NORAD_CAT_ID,OBJECT_NAME,OBJECT_TYPE,EPOCH,MEAN_MOTION,ECCENTRICITY,INCLINATION,RA_OF_ASC_NODE,ARG_OF_PERICENTER,MEAN_ANOMALY,BSTAR,MEAN_MOTION_DOT,MEAN_MOTION_DDOT,TLE_LINE0,TLE_LINE1,TLE_LINE2,SEMIMAJOR_AXIS,PERIOD,APOGEE,PERIGEE,DECAYED
53439.0,STARLINK-4519,PAYLOAD,2023-12-24 17:23:04,15.08848123,0.0001382,53.2179,122.0055,91.6016,268.5135,0.00011954,1.615e-05,0.0,0 STARLINK-4519,1 53439U 22097BD  23358.72435497  .00001615  00000-0  11954-3 0  9992,2 53439  53.2179 122.0055 0001382  91.6016 268.5135 15.08848123 76637,6917.856,95.437,540.677,538.765,0.0
53439.0,STARLINK-4519,PAYLOAD,2023-12-25 12:27:42,15.08836112,0.0001678,53.2171,118.4417,88.5992,271.5192,8.1195e-05,1.004e-05,0.0,0 STARLINK-4519,1 53439U 22097BD  23359.51924647  .00001004  00000-0  81195-4 0  9997,2 53439  53.2171 118.4417 0001678  88.5992 271.5192 15.08836112 76751,6917.892,95.438,540.918,538.596,0.0
53439.0,STARLINK-4519,PAYLOAD,2023-12-25 14:03:05,15.08837727,0.0001492,53.2182,118.145,90.4387,269.6776,8.9582e-05,1.138e-05,0.0,0 STARLINK-4519,1 53439U 22097BD  23359.58548504  .00001138  00000-0  89582-4 0  9994,2 53439  53.2182 118.1450 0001492  90.4387 269.6776 15.08837727 77256,6917.887,95.438,540.784,538.72,0.0
53439.0,STARLINK-4519,PAYLOAD,2023-12-25 15:38:28,15.08840981,0.0001451,53.2177,117.8468,91.6817,268.4341,0.00010831,1.436e-05,0.0,0 STARLINK-4519,1 53439U 22097BD  23359.65172253  .00001436  00000-0  10831-3 0  9997,2 53439  53.2177 117.8468 0001451  91.6817 268.4341 15.08840981 77263,6917.877,95.437,540.746,538.739,0.0
53439.0,STARLINK-4519,PAYLOAD,2023-12-26 13:53:53,15.08838046,0.0001659,53.2173,113.6852,70.9345,289.1827,-2.3327e-05,-6.59e-06,0.0,0 STARLINK-4519,1 53439U 22097BD  23360.57909235 -.00000659  00000-0 -23327-4 0  9991,2 53439  53.2173 113.6852 0001659  70.9345 289.1827 15.08838046 77400,6917.886,95.438,540.899,538.604,0.0
53439.0,STARLINK-4519,PAYLOAD,2023-12-26 17:04:39,15.08843912,0.0001562,53.2175,113.0878,86.4678,273.6493,3.1172e-05,2.08e-06,0.0,0 STARLINK-4519,1 53439U 22097BD  23360.71156705  .00000208  00000-0  31172-4 0  9998,2 53439  53.2175 113.0878 0001562  86.4678 273.6493 15.08843912 76930,6917.868,95.437,540.814,538.653,0.0
53439.0,STARLINK-4519,PAYLOAD,2023-12-27 13:44:39,15.08846225,0.0001715,53.2176,109.2234,72.5956,287.5223,8.2989e-05,1.033e-05,0.0,0 STARLINK-4519,1 53439U 22097BD  23361.57268439  .00001033  00000-0  82989-4 0  9990,2 53439  53.2176 109.2234 0001715  72.5956 287.5223 15.08846225 77553,6917.861,95.437,540.913,538.54,0.0
53439.0,STARLINK-4519,PAYLOAD,2023-12-28 12:00:04,15.0883606,0.0001407,53.2181,105.0612,78.9587,281.1564,6.5224e-05,7.5e-06,0.0,0 STARLINK-4519,1 53439U 22097BD  23362.50005094  .00000750  00000-0  65224-4 0  9998,2 53439  53.2181 105.0612 0001407  78.9587 281.1564 15.08836060 77207,6917.892,95.438,540.731,538.784,0.0
53439.0,STARLINK-4519,PAYLOAD,2023-12-28 13:35:27,15.0883693,0.0001576,53.2183,104.7636,84.4107,275.7065,6.4121e-05,7.33e-06,0.0,0 STARLINK-4519,1 53439U 22097BD  23362.56629055  .00000733  00000-0  64121-4 0  9999,2 53439  53.2183 104.7636 0001576  84.4107 275.7065 15.08836930 77704,6917.89,95.438,540.845,538.665,0.0
53439.0,STARLINK-4519,PAYLOAD,2023-12-29 13:26:14,15.08842915,0.0001476,53.2177,100.3005,100.142,259.9739,-2.0241e-06,-3.2e-06,0.0,0 STARLINK-4519,1 53439U 22097BD  23363.55988789 -.00000320  00000-0 -20241-5 0  9991,2 53439  53.2177 100.3005 0001476 100.1420 259.9739 15.08842915 77850,6917.871,95.437,540.758,538.715,0.0
53439.0,STARLINK-4519,PAYLOAD,2023-12-30 13:17:01,15.08843264,0.0001485,53.2179,95.8417,97.049,263.0671,9.6692e-05,1.251e-05,0.0,0 STARLINK-4519,1 53439U 22097BD  23364.55348452  .00001251  00000-0  96692-4 0  9993,2 53439  53.2179  95.8417 0001485  97.0490 263.0671 15.08843264 78005,6917.87,95.437,540.763,538.708,0.0
53439.0,STARLINK-4519,PAYLOAD,2023-12-31 11:32:27,15.08814163,0.0001517,53.2175,91.6778,103.016,257.1002,-0.00015685,-2.782e-05,0.0,0 STARLINK-4519,1 53439U 22097BD  23365.48087366 -.00002782  00000-0 -15685-3 0  9994,2 53439  53.2175  91.6778 0001517 103.0160 257.1002 15.08814163 77651,6917.959,95.439,540.874,538.775,0.0
53439.0,STARLINK-4519,PAYLOAD,2024-01-01 11:23:13,15.08839614,0.0001518,53.2176,87.2151,107.2247,252.8911,3.2902e-05,2.36e-06,0.0,0 STARLINK-4519,1 53439U 22097BD  24001.47446449  .00000236  00000-0  32902-4 0  9994,2 53439  53.2176  87.2151 0001518 107.2247 252.8911 15.08839614 77807,6917.882,95.438,540.797,538.696,0.0
53439.0,STARLINK-4519,PAYLOAD,2024-01-01 14:34:00,15.08839058,0.0001538,53.2175,86.6206,73.8642,286.252,3.3024e-05,2.38e-06,0.0,0 STARLINK-4519,1 53439U 22097BD  24001.60694703  .00000238  00000-0  33024-4 0  9995,2 53439  53.2175  86.6206 0001538  73.8642 286.2520 15.08839058 78315,6917.883,95.438,540.812,538.684,0.0
53439.0,STARLINK-4519,PAYLOAD,2024-01-02 04:52:28,15.08803446,0.0001156,53.2164,83.9402,41.3587,318.7493,0.00071718,0.00011133,0.0,0 STARLINK-4519,1 53439U 22097BD  24002.20310429  .00011133  00000-0  71718-3 0  9999,2 53439  53.2164  83.9402 0001156  41.3587 318.7493 15.08803446 77912,6917.992,95.44,540.657,539.057,0.0
53439.0,STARLINK-4519,PAYLOAD,2024-01-02 11:13:59,15.08842973,0.0001463,53.2165,82.7579,89.7261,270.3898,0.00039202,5.957e-05,0.0,0 STARLINK-4519,1 53439U 22097BD  24002.46805412  .00005957  00000-0  39202-3 0  9997,2 53439  53.2165  82.7579 0001463  89.7261 270.3898 15.08842973 77955,6917.871,95.437,540.748,538.724,0.0
53439.0,STARLINK-4519,PAYLOAD,2024-01-02 12:49:21,15.08880951,0.0001754,53.217,82.4604,99.9354,260.1836,-8.0578e-05,-1.572e-05,0.0,0 STARLINK-4519,1 53439U 22097BD  24002.53428072 -.00001572  00000-0 -80578-4 0  9992,2 53439  53.2170  82.4604 0001754  99.9354 260.1836 15.08880951 78459,6917.755,95.435,540.834,538.407,0.0
53439.0,STARLINK-4519,PAYLOAD,2024-01-03 11:04:47,15.0884798,0.0001347,53.2171,78.2946,102.5464,257.5679,3.9764e-05,3.45e-06,0.0,0 STARLINK-4519,1 53439U 22097BD  24003.46166081  .00000345  00000-0  39764-4 0  9990,2 53439  53.2171  78.2946 0001347 102.5464 257.5679 15.08847980 78105,6917.856,95.437,540.653,538.789,0.0
53439.0,STARLINK-4519,PAYLOAD,2024-01-03 12:40:10,15.08848537,0.0001335,53.2171,77.9972,98.309,261.8054,4.4596e-05,4.22e-06,0.0,0 STARLINK-4519,1 53439U 22097BD  24003.52790009  .00000422  00000-0  44596-4 0  9995,2 53439  53.2171  77.9972 0001335  98.3090 261.8054 15.08848537 78603,6917.854,95.437,540.643,538.796,0.0
53439.0,STARLINK-4519,PAYLOAD,2024-01-04 14:06:19,15.08859534,0.000143,53.2174,73.24,91.8056,268.31,-5.0505e-05,-1.092e-05,0.0,0 STARLINK-4519,1 53439U 22097BD  24004.58772856 -.00001092  00000-0 -50505-4 0  9995,2 53439  53.2174  73.2400 0001430  91.8056 268.3100 15.08859534 78767,6917.821,95.436,540.675,538.696,0.0
53439.0,STARLINK-4519,PAYLOAD,2024-01-05 10:46:20,15.08842511,0.0002364,53.2184,69.3682,150.0764,210.0364,1.5025e-05,-4.9e-07,0.0,0 STARLINK-4519,1 53439U 22097BD  24005.44885300 -.00000049  00000-0  15025-4 0  9998,2 53439  53.2184  69.3682 0002364 150.0764 210.0364 15.08842511 78401,6917.873,95.437,541.373,538.102,0.0
53439.0,STARLINK-4519,PAYLOAD,2024-01-05 13:57:07,15.08834591,0.0002178,53.2187,68.7754,145.9138,214.1994,9.7843e-05,1.269e-05,0.0,0 STARLINK-4519,1 53439U 22097BD  24005.58133621  .00001269  00000-0  97843-4 0  9997,2 53439  53.2187  68.7754 0002178 145.9138 214.1994 15.08834591 78917,6917.897,95.438,541.269,538.255,0.0
53439.0,STARLINK-4519,PAYLOAD,2024-01-06 10:37:08,15.08839268,0.0001559,53.2181,64.9096,105.9639,254.1525,1.9744e-05,2.6e-07,0.0,0 STARLINK-4519,1 53439U 22097BD  24006.44245914  .00000026  00000-0  19744-4 0  9996,2 53439  53.2181  64.9096 0001559 105.9639 254.1525 15.08839268 79047,6917.883,95.438,540.826,538.669,0.0
53439.0,STARLINK-4519,PAYLOAD,2024-01-06 13:47:54,15.08838764,0.0001579,53.2182,64.3154,106.3897,253.7269,1.2386e-05,-9.1e-07,0.0,0 STARLINK-4519,1 53439U 22097BD  24006.57493980 -.00000091  00000-0  12386-4 0  9996,2 53439  53.2182  64.3154 0001579 106.3897 253.7269 15.08838764 78577,6917.884,95.438,540.842,538.657,0.0
53439.0,STARLINK-4519,PAYLOAD,2024-01-07 10:27:55,15.08842647,0.0001475,53.2179,60.4505,94.792,265.324,8.4132e-05,1.051e-05,0.0,0 STARLINK-4519,1 53439U 22097BD  24007.43605600  .00001051  00000-0  84132-4 0  9990,2 53439  53.2179  60.4505 0001475  94.7920 265.3240 15.08842647 79194,6917.872,95.437,540.758,538.717,0.0
53439.0,STARLINK-4519,PAYLOAD,2024-01-08 11:54:05,15.08842089,0.0001574,53.2185,55.6938,84.1791,275.9381,7.3607e-05,8.84e-06,0.0,0 STARLINK-4519,1 53439U 22097BD  24008.49589863  .00000884  00000-0  73607-4 0  9997,2 53439  53.2185  55.6938 0001574  84.1791 275.9381 15.08842089 78862,6917.874,95.437,540.828,538.65,0.0
53439.0,STARLINK-4519,PAYLOAD,2024-01-09 11:44:52,15.08844799,0.0001734,53.2194,51.2321,66.43,293.6875,2.5011e-05,1.1e-06,0.0,0 STARLINK-4519,1 53439U 22097BD  24009.48950050  .00000110  00000-0  25011-4 0  9995,2 53439  53.2194  51.2321 0001734  66.4300 293.6875 15.08844799 79504,6917.866,95.437,540.93,538.531,0.0
53439.0,STARLINK-4519,PAYLOAD,2024-01-10 02:03:21,15.0883239,0.0001698,53.2194,48.5624,83.9932,276.1254,0.00013899,1.924e-05,0.0,0 STARLINK-4519,1 53439U 22097BD  24010.08566386  .00001924  00000-0  13899-3 0  9992,2 53439  53.2194  48.5624 0001698  83.9932 276.1254 15.08832390 79100,6917.904,95.438,540.943,538.594,0.0
53439.0,STARLINK-4519,PAYLOAD,2024-01-10 10:00:16,15.08844565,0.0001688,53.2186,47.0738,84.8476,275.2708,5.4136e-05,5.74e-06,0.0,0 STARLINK-4519,1 53439U 22097BD  24010.41686051  .00000574  00000-0  54136-4 0  9991,2 53439  53.2186  47.0738 0001688  84.8476 275.2708 15.08844565 79159,6917.866,95.437,540.899,538.564,0.0
53439.0,STARLINK-4519,PAYLOAD,2024-01-11 01:54:08,15.08839058,0.0001448,53.2178,44.0945,113.3588,246.7556,-4.4168e-07,-2.95e-06,0.0,0 STARLINK-4519,1 53439U 22097BD  24011.07926435 -.00000295  00000-0 -44168-6 0  9995,2 53439  53.2178  44.0945 0001448 113.3588 246.7556 15.08839058 79259,6917.883,95.438,540.75,538.747,0.0
